XRISM                   
1 57800U 23137A   24175.81052855  .00005105  00000+0  38093-3 0  9995
2 57800  31.0044 330.4528 0009554 275.1745  84.7801 15.01292902 43683
